     2.11           N: GPS NAV DATA                         RINEX VERSION / TYPE
teqc  2019Feb25                         20221121 12:27:38UTCPGM / RUN BY / DATE
OSX ker:10.11.6|Core i5|gcc 4.3 -m64|OSX ker:10.10+|=+      COMMENT
    8.3819D-09  1.4901D-08 -5.9605D-08 -5.9605D-08          ION ALPHA
    8.3968D+04  1.6384D+04 -1.3107D+05 -6.5536D+04          ION BETA
    4.656612873077D-09 1.598721155460D-14    61440     1551 DELTA-UTC: A0,A1,T,W
                                                            END OF HEADER
 9 09  9 25 22  0  0.0 7.955636829138D-05 2.160049916711D-12 0.000000000000D+00
    8.300000000000D+01-4.218750000000D+01 4.144101189877D-09 8.744978239217D-01
   -2.482905983925D-06 2.067703625653D-02 5.370005965233D-06 5.153627656937D+03
    5.112000000000D+05-2.291053533554D-07 5.801910558806D-01-1.881271600723D-07
    9.779026201065D-01 2.897187500000D+02 1.514594629060D+00-8.305703108730D-09
   -5.643092200298D-11 1.000000000000D+00 1.550000000000D+03 0.000000000000D+00
    2.800000000000D+00 0.000000000000D+00-5.587935447693D-09 8.300000000000D+01
    5.040180000000D+05 4.000000000000D+00
32 09  9 25 21 59 44.0 1.897425390780D-04-7.162270776462D-12 0.000000000000D+00
    3.000000000000D+00 7.237500000000D+01 4.408755070916D-09 2.511595927035D+00
    3.762543201447D-06 1.327437860891D-02 6.658956408501D-06 5.153713220596D+03
    5.111840000000D+05 2.104789018631D-07-1.396300524767D+00 4.656612873077D-08
    9.620476280710D-01 2.473750000000D+02-1.112990797197D+00-7.805325123121D-09
   -3.310852195998D-10 1.000000000000D+00 1.550000000000D+03 0.000000000000D+00
    2.000000000000D+00 0.000000000000D+00-3.259629011154D-09 3.000000000000D+00
    5.040180000000D+05 4.000000000000D+00
27 09  9 25 22  0  0.0 8.585443720222D-05 3.296918293927D-12 0.000000000000D+00
    5.900000000000D+01-4.031250000000D+01 3.925163498815D-09-2.137027301113D+00
   -1.830980181694D-06 2.136816980783D-02 4.177913069725D-06 5.153739164352D+03
    5.112000000000D+05 3.799796104431D-07 5.558850611298D-01 1.750886440277D-07
    9.759596820325D-01 2.985000000000D+02-1.542730593082D+00-7.649247193278D-09
    1.064330047904D-10 1.000000000000D+00 1.550000000000D+03 0.000000000000D+00
    2.000000000000D+00 0.000000000000D+00-4.190951585770D-09 5.900000000000D+01
    5.040180000000D+05 4.000000000000D+00
22 09  9 25 22  0  0.0 1.901364885271D-04-7.958078640513D-13 0.000000000000D+00
    8.500000000000D+01 5.850000000000D+01 4.962706716655D-09-1.427667723726D+00
    2.931803464890D-06 5.346727324650D-03 6.901100277901D-06 5.153663900375D+03
    5.112000000000D+05 9.872019290924D-08-1.449131062377D+00 1.359730958939D-07
    9.380082311222D-01 2.365312500000D+02-1.885766400163D+00-8.247129240322D-09
   -2.989410235221D-10 1.000000000000D+00 1.550000000000D+03 0.000000000000D+00
    4.000000000000D+00 0.000000000000D+00-1.769512891769D-08 8.500000000000D+01
    5.040180000000D+05 4.000000000000D+00
14 09  9 25 22  0  0.0-4.599522799253D-05 5.115907697473D-12 0.000000000000D+00
    7.800000000000D+01 2.359375000000D+01 3.741227265704D-09-2.238269232898D+00
    1.356005668640D-06 4.952405928634D-03 4.911795258522D-06 5.153653110504D+03
    5.112000000000D+05 2.421438694000D-08-3.932873239842D-01-6.891787052155D-08
    9.879461773867D-01 3.013125000000D+02-2.151553807001D+00-7.729250525737D-09
   -4.143029716675D-11 1.000000000000D+00 1.550000000000D+03 0.000000000000D+00
    2.000000000000D+00 0.000000000000D+00-8.847564458847D-09 7.800000000000D+01
    5.040180000000D+05 4.000000000000D+00
20 09  9 25 21 59 44.0 7.142731919885D-05-9.094947017729D-13 0.000000000000D+00
    3.000000000000D+00 6.684375000000D+01 5.024495004671D-09-2.230559735081D-01
    3.460794687271D-06 3.840015153401D-03 7.115304470062D-06 5.153770257950D+03
    5.111840000000D+05-2.048909664154D-08-1.508475830828D+00-7.450580596924D-09
    9.400586336954D-01 2.297500000000D+02 1.315210127141D+00-8.345347617226D-09
   -2.732256666600D-10 1.000000000000D+00 1.550000000000D+03 0.000000000000D+00
    2.000000000000D+00 0.000000000000D+00-7.450580596924D-09 3.000000000000D+00
    5.048820000000D+05 4.000000000000D+00
20 09  9 25 21 59 28.0 7.142685353756D-05-9.094947017729D-13 0.000000000000D+00
    5.000000000000D+00 6.684375000000D+01 5.024495004671D-09-2.253896452977D-01
    3.460794687271D-06 3.840014222078D-03 7.115304470062D-06 5.153770257950D+03
    5.111680000000D+05-2.048909664154D-08-1.508475690387D+00-7.450580596924D-09
    9.400586351583D-01 2.297500000000D+02 1.315210181269D+00-8.345347617226D-09
   -2.732256666600D-10 1.000000000000D+00 1.550000000000D+03 0.000000000000D+00
    2.000000000000D+00 0.000000000000D+00-7.450580596924D-09 5.000000000000D+00
    5.052060000000D+05 4.000000000000D+00
26 09  9 25 21 59 44.0 6.175972521305D-05-1.136868377216D-12 0.000000000000D+00
    2.000000000000D+00 2.503125000000D+01 3.793372294897D-09 1.210642337416D+00
    1.277774572372D-06 1.968731172383D-02 5.539506673813D-06 5.153609987259D+03
    5.111840000000D+05-3.017485141754D-07-3.756385164291D-01 7.450580596924D-09
    9.923330444601D-01 2.989375000000D+02 1.029634440407D+00-8.041406385425D-09
   -2.385813664430D-10 1.000000000000D+00 1.550000000000D+03 0.000000000000D+00
    2.000000000000D+00 0.000000000000D+00-6.053596735001D-09 2.000000000000D+00
    5.067480000000D+05 4.000000000000D+00
12 09  9 25 22  0  0.0-2.135410904884D-04 5.570655048359D-12 0.000000000000D+00
    8.300000000000D+01-5.721875000000D+01 4.327323107520D-09 1.814078440357D+00
   -3.151595592499D-06 3.075288957916D-03 7.659196853638D-06 5.153566679001D+03
    5.112000000000D+05 4.284083843231D-08 1.666204942958D+00 6.332993507385D-08
    9.678584469378D-01 2.395312500000D+02-5.890411397221D-01-7.822111536628D-09
    2.492960984689D-10 1.000000000000D+00 1.550000000000D+03 0.000000000000D+00
    2.000000000000D+00 0.000000000000D+00-1.164153218269D-08 8.300000000000D+01
    5.096220000000D+05 4.000000000000D+00
 4 09  9 25 22  0  0.0-2.822652459145D-04-1.739408617141D-11 0.000000000000D+00
    2.500000000000D+01 1.971875000000D+01 5.244861326670D-09 1.967965091360D-02
    1.085922122002D-06 8.791176485829D-03 7.515773177147D-06 5.153801031113D+03
    5.112000000000D+05 4.842877388000D-08-2.525179005830D+00 7.636845111847D-08
    9.402034523448D-01 2.216562500000D+02 5.193197031559D-01-8.351062140973D-09
   -2.853690296227D-10 1.000000000000D+00 1.550000000000D+03 0.000000000000D+00
    2.000000000000D+00 0.000000000000D+00-6.053596735001D-09 2.500000000000D+01
    5.098620000000D+05 4.000000000000D+00
20 09  9 25 23 59 28.0 7.142033427954D-05-9.094947017729D-13 0.000000000000D+00
    9.500000000000D+01 6.087500000000D+01 5.039852787241D-09 8.246428689998D-01
    3.157183527946D-06 3.839798504487D-03 7.126480340958D-06 5.153770069122D+03
    5.183680000000D+05-5.401670932770D-08-1.508536082572D+00 5.587935447693D-08
    9.400568708791D-01 2.310000000000D+02 1.315304034778D+00-8.334632885200D-09
   -2.128660095809D-10 1.000000000000D+00 1.550000000000D+03 0.000000000000D+00
    2.000000000000D+00 0.000000000000D+00-7.450580596924D-09 9.500000000000D+01
    5.112180000000D+05 4.000000000000D+00
 2 09  9 25 23 59 44.0 1.754397526383D-04 3.183231456205D-12 0.000000000000D+00
    4.000000000000D+00 2.140625000000D+01 5.204145344971D-09-1.764060795779D+00
    1.087784767151D-06 9.092930238694D-03 7.929280400276D-06 5.153709949493D+03
    5.183840000000D+05-3.539025783539D-08-2.543458436407D+00-2.272427082062D-07
    9.410213244925D-01 2.168437500000D+02 2.896897356774D+00-8.254272395006D-09
   -1.042900583853D-10 1.000000000000D+00 1.550000000000D+03 0.000000000000D+00
    2.000000000000D+00 0.000000000000D+00-1.722946763039D-08 4.000000000000D+00
    5.137020000000D+05 4.000000000000D+00
